STARLINK-30579          
1 58061U 23158L   26068.15232692  .00006924  00000+0  26757-3 0  9991
2 58061  43.0056   4.2740 0001977 261.2408  98.8220 15.26742207133781
VSP RF A1               
1 59135U 24043AP  26066.03073316  .00000577  00000+0  25199-4 0  9997
2 59135  97.5247 201.5379 0009431 234.6315 125.4042 15.26179596111403
